{
    "links": {
        "self": "http://www.neowsapp.com/rest/v1/neo/3439358?api_key=iIulBulltgU6a56xZRHN4H3l9WmuAYTsLGpBGhQ2"
    },
    "id": "3439358",
    "neo_reference_id": "3439358",
    "name": "(2008 WB)",
    "designation": "2008 WB",
    "nasa_jpl_url": "http://ssd.jpl.nasa.gov/sbdb.cgi?sstr=3439358",
    "absolute_magnitude_h": 21.2,
    "estimated_diameter": {
        "kilometers": {
            "estimated_diameter_min": 0.1529519353,
            "estimated_diameter_max": 0.3420109247
        },
        "meters": {
            "estimated_diameter_min": 152.9519353442,
            "estimated_diameter_max": 342.0109247198
        },
        "miles": {
            "estimated_diameter_min": 0.095039897,
            "estimated_diameter_max": 0.2125156703
        },
        "feet": {
            "estimated_diameter_min": 501.8108275547,
            "estimated_diameter_max": 1122.0831222578
        }
    },
    "is_potentially_hazardous_asteroid": false,
    "close_approach_data": [
        {
            "close_approach_date": "2003-03-16",
            "close_approach_date_full": "2003-Mar-16 21:42",
            "epoch_date_close_approach": 1047850920000,
            "relative_velocity": {
                "kilometers_per_second": "18.6203245634",
                "kilometers_per_hour": "67033.1684282544",
                "miles_per_hour": "41651.8040158784"
            },
            "miss_distance": {
                "astronomical": "0.0701880893",
                "lunar": "27.3031667377",
                "kilometers": "10499988.658649791",
                "miles": "6524390.4124814758"
            },
            "orbiting_body": "Mars"
        },
        {
            "close_approach_date": "2008-11-18",
            "close_approach_date_full": "2008-Nov-18 09:17",
            "epoch_date_close_approach": 1226999820000,
            "relative_velocity": {
                "kilometers_per_second": "22.049850779",
                "kilometers_per_hour": "79379.4628043395",
                "miles_per_hour": "49323.3112075075"
            },
            "miss_distance": {
                "astronomical": "0.2749446094",
                "lunar": "106.9534530566",
                "kilometers": "41131127.934221978",
                "miles": "25557697.7721321764"
            },
            "orbiting_body": "Earth"
        },
        {
            "close_approach_date": "2011-05-20",
            "close_approach_date_full": "2011-May-20 05:43",
            "epoch_date_close_approach": 1305870180000,
            "relative_velocity": {
                "kilometers_per_second": "20.6791684329",
                "kilometers_per_hour": "74445.0063584915",
                "miles_per_hour": "46257.231867586"
            },
            "miss_distance": {
                "astronomical": "0.4997644987",
                "lunar": "194.4083899943",
                "kilometers": "74763704.507137769",
                "miles": "46456011.7868444522"
            },
            "orbiting_body": "Earth"
        },
        {
            "close_approach_date": "2021-11-19",
            "close_approach_date_full": "2021-Nov-19 12:03",
            "epoch_date_close_approach": 1637323380000,
            "relative_velocity": {
                "kilometers_per_second": "23.0995995932",
                "kilometers_per_hour": "83158.5585353803",
                "miles_per_hour": "51671.4943299423"
            },
            "miss_distance": {
                "astronomical": "0.4043097247",
                "lunar": "157.2764829083",
                "kilometers": "60483873.635406389",
                "miles": "37582936.3331266082"
            },
            "orbiting_body": "Earth"
        }
    ],
    "orbital_data": {
        "orbit_id": "13",
        "orbit_determination_date": "2017-04-06 09:02:13",
        "first_observation_date": "2008-11-17",
        "last_observation_date": "2008-12-02",
        "data_arc_in_days": 15,
        "observations_used": 57,
        "orbit_uncertainty": "7",
        "minimum_orbit_intersection": ".26912",
        "jupiter_tisserand_invariant": "4.491",
        "epoch_osculation": "2459000.5",
        "eccentricity": ".09536557824901168",
        "semi_major_axis": "1.385482095585162",
        "inclination": "44.31402975720098",
        "ascending_node_longitude": "236.8772323464673",
        "orbital_period": "595.6618741546279",
        "perihelion_distance": "1.253354794386031",
        "perihelion_argument": "164.7734228338575",
        "aphelion_distance": "1.517609396784294",
        "perihelion_time": "2458942.902259096077",
        "mean_anomaly": "34.81033053330806",
        "mean_motion": ".6043697198363036",
        "equinox": "J2000",
        "orbit_class": {
            "orbit_class_type": "AMO",
            "orbit_class_description": "Near-Earth asteroid orbits similar to that of 1221 Amor",
            "orbit_class_range": "1.017 AU < q (perihelion) < 1.3 AU"
        }
    },
    "is_sentry_object": false
}